{"type": "FeatureCollection", "features": [ {"type": "Feature", "properties": {"norad_id": 60989, "name": "SENTINEL-2C", "group": "resource", "lat": -36.35475116580205, "lon": 74.95804460564696, "alt_km": 795.840435113555, "timestamp": "2025-12-22T05:49:03.140287+00:00", "meta": {"OBJECT_NAME": "SENTINEL-2C", "OBJECT_ID": "2024-157A", "EPOCH": "2025-12-21T19:55:09.998112", "MEAN_MOTION": 14.30820952, "ECCENTRICITY": 0.0001197, "INCLINATION": 98.5672, "RA_OF_ASC_NODE": 68.1812, "ARG_OF_PERICENTER": 95.2999, "MEAN_ANOMALY": 264.8321, "EPHEMERIS_TYPE": 0, "CLASSIFICATION_TYPE": "U", "NORAD_CAT_ID": 60989, "ELEMENT_SET_NO": 999, "REV_AT_EPOCH": 6762, "BSTAR": 6.4571e-05, "MEAN_MOTION_DOT": 1.26e-06, "MEAN_MOTION_DDOT": 0}, "tle": {"line1": "1 60989U 24157A   25355.82997683  .00000126  00000+0  64571-4 0  9998", "line2": "2 60989  98.5672  68.1812 0001197  95.2999 264.8321 14.30820952 67629"}}, "geometry": {"type": "Point", "coordinates": [74.95804460564696, -36.35475116580205]}}, {"type": "Feature", "properties": {"norad_id": 61735, "name": "IONOSFERA-M 1", "group": "resource", "lat": -46.466145107043104, "lon": -124.6650070332941, "alt_km": 822.7105208593694, "timestamp": "2025-12-22T05:49:03.140297+00:00", "meta": {"OBJECT_NAME": "IONOSFERA-M 1", "OBJECT_ID": "2024-199A", "EPOCH": "2025-12-21T21:35:58.342848", "MEAN_MOTION": 14.22715953, "ECCENTRICITY": 5.12e-05, "INCLINATION": 98.7397, "RA_OF_ASC_NODE": 225.6776, "ARG_OF_PERICENTER": 9.4814, "MEAN_ANOMALY": 350.6373, "EPHEMERIS_TYPE": 0, "CLASSIFICATION_TYPE": "U", "NORAD_CAT_ID": 61735, "ELEMENT_SET_NO": 999, "REV_AT_EPOCH": 10249, "BSTAR": 4.3543e-05, "MEAN_MOTION_DOT": 5.3e-07, "MEAN_MOTION_DDOT": 0}, "tle": {"line1": "1 61735U 24199A   25355.89998082  .00000053  00000+0  43543-4 0  9990", "line2": "2 61735  98.7397 225.6776 0000512   9.4814 350.6373 14.22715953102498"}}, "geometry": {"type": "Point", "coordinates": [-124.6650070332941, -46.466145107043104]}}, {"type": "Feature", "properties": {"norad_id": 61736, "name": "IONOSFERA-M 2", "group": "resource", "lat": 43.61487351506578, "lon": 54.35745019440058, "alt_km": 811.4415214066285, "timestamp": "2025-12-22T05:49:03.140307+00:00", "meta": {"OBJECT_NAME": "IONOSFERA-M 2", "OBJECT_ID": "2024-199B", "EPOCH": "2025-12-21T20:44:34.355328", "MEAN_MOTION": 14.2271811, "ECCENTRICITY": 0.000182, "INCLINATION": 98.7396, "RA_OF_ASC_NODE": 225.5546, "ARG_OF_PERICENTER": 99.032, "MEAN_ANOMALY": 261.1064, "EPHEMERIS_TYPE": 0, "CLASSIFICATION_TYPE": "U", "NORAD_CAT_ID": 61736, "ELEMENT_SET_NO": 999, "REV_AT_EPOCH": 10561, "BSTAR": 4.518e-05, "MEAN_MOTION_DOT": 5.7e-07, "MEAN_MOTION_DDOT": 0}, "tle": {"line1": "1 61736U 24199B   25355.86428652  .00000057  00000+0  45180-4 0  9992", "line2": "2 61736  98.7396 225.5546 0001820  99.0320 261.1064 14.22718110105610"}}, "geometry": {"type": "Point", "coordinates": [54.35745019440058, 43.61487351506578]}}, {"type": "Feature", "properties": {"norad_id": 63772, "name": "BIOMASS", "group": "resource", "lat": 57.54670674256585, "lon": 168.22212539577563, "alt_km": 662.7180608220324, "timestamp": "2025-12-22T05:49:03.140318+00:00", "meta": {"OBJECT_NAME": "BIOMASS", "OBJECT_ID": "2025-090A", "EPOCH": "2025-12-21T18:05:50.987040", "MEAN_MOTION": 14.6753489, "ECCENTRICITY": 0.0001068, "INCLINATION": 98.0697, "RA_OF_ASC_NODE": 180.6324, "ARG_OF_PERICENTER": 83.1916, "MEAN_ANOMALY": 276.941, "EPHEMERIS_TYPE": 0, "CLASSIFICATION_TYPE": "U", "NORAD_CAT_ID": 63772, "ELEMENT_SET_NO": 999, "REV_AT_EPOCH": 3466, "BSTAR": 0.00018555, "MEAN_MOTION_DOT": 1.004e-05, "MEAN_MOTION_DDOT": 0}, "tle": {"line1": "1 63772U 25090A   25355.75406235  .00001004  00000+0  18555-3 0  9994", "line2": "2 63772  98.0697 180.6324 0001068  83.1916 276.9410 14.67534890 34668"}}, "geometry": {"type": "Point", "coordinates": [168.22212539577563, 57.54670674256585]}}, {"type": "Feature", "properties": {"norad_id": 64694, "name": "GOSAT-GW (IBUKI GW)", "group": "resource", "lat": -81.8795458072555, "lon": 29.246652367194663, "alt_km": 677.2150109761851, "timestamp": "2025-12-22T05:49:03.140328+00:00", "meta": {"OBJECT_NAME": "GOSAT-GW (IBUKI GW)", "OBJECT_ID": "2025-141A", "EPOCH": "2025-12-21T20:24:50.681376", "MEAN_MOTION": 14.67561999, "ECCENTRICITY": 0.0001432, "INCLINATION": 98.0436, "RA_OF_ASC_NODE": 291.1987, "ARG_OF_PERICENTER": 84.0027, "MEAN_ANOMALY": 276.1341, "EPHEMERIS_TYPE": 0, "CLASSIFICATION_TYPE": "U", "NORAD_CAT_ID": 64694, "ELEMENT_SET_NO": 999, "REV_AT_EPOCH": 2583, "BSTAR": 0.00020185, "MEAN_MOTION_DOT": 1.098e-05, "MEAN_MOTION_DDOT": 0}, "tle": {"line1": "1 64694U 25141A   25355.85058659  .00001098  00000+0  20185-3 0  9994", "line2": "2 64694  98.0436 291.1987 0001432  84.0027 276.1341 14.67561999 25838"}}, "geometry": {"type": "Point", "coordinates": [29.246652367194663, -81.8795458072555]}}, {"type": "Feature", "properties": {"norad_id": 64876, "name": "IONOSFERA-M 3", "group": "resource", "lat": 43.075515463285036, "lon": 145.95459103923798, "alt_km": 816.9199192041942, "timestamp": "2025-12-22T05:49:03.140339+00:00", "meta": {"OBJECT_NAME": "IONOSFERA-M 3", "OBJECT_ID": "2025-155A", "EPOCH": "2025-12-21T20:43:55.374240", "MEAN_MOTION": 14.21443085, "ECCENTRICITY": 0.0001964, "INCLINATION": 98.5796, "RA_OF_ASC_NODE": 317.4722, "ARG_OF_PERICENTER": 45.0216, "MEAN_ANOMALY": 315.1121, "EPHEMERIS_TYPE": 0, "CLASSIFICATION_TYPE": "U", "NORAD_CAT_ID": 64876, "ELEMENT_SET_NO": 999, "REV_AT_EPOCH": 2121, "BSTAR": 4.4029e-05, "MEAN_MOTION_DOT": 5.4e-07, "MEAN_MOTION_DDOT": 0}, "tle": {"line1": "1 64876U 25155A   25355.86383535  .00000054  00000+0  44029-4 0  9991", "line2": "2 64876  98.5796 317.4722 0001964  45.0216 315.1121 14.21443085 21213"}}, "geometry": {"type": "Point", "coordinates": [145.95459103923798, 43.075515463285036]}}, {"type": "Feature", "properties": {"norad_id": 64877, "name": "IONOSFERA-M 4", "group": "resource", "lat": -42.59927957222299, "lon": -34.261315573738706, "alt_km": 827.1704862836759, "timestamp": "2025-12-22T05:49:03.140349+00:00", "meta": {"OBJECT_NAME": "IONOSFERA-M 4", "OBJECT_ID": "2025-155B", "EPOCH": "2025-12-21T21:34:24.481344", "MEAN_MOTION": 14.2144426, "ECCENTRICITY": 0.0001369, "INCLINATION": 98.5794, "RA_OF_ASC_NODE": 317.4256, "ARG_OF_PERICENTER": 54.3771, "MEAN_ANOMALY": 305.7534, "EPHEMERIS_TYPE": 0, "CLASSIFICATION_TYPE": "U", "NORAD_CAT_ID": 64877, "ELEMENT_SET_NO": 999, "REV_AT_EPOCH": 2121, "BSTAR": 4.3247e-05, "MEAN_MOTION_DOT": 5.2e-07, "MEAN_MOTION_DDOT": 0}, "tle": {"line1": "1 64877U 25155B   25355.89889446  .00000052  00000+0  43247-4 0  9996", "line2": "2 64877  98.5794 317.4256 0001369  54.3771 305.7534 14.21444260 21211"}}, "geometry": {"type": "Point", "coordinates": [-34.261315573738706, -42.59927957222299]}}, {"type": "Feature", "properties": {"norad_id": 64899, "name": "MICROCARB", "group": "resource", "lat": 39.651204919914, "lon": 64.74040306334618, "alt_km": 648.3943982803539, "timestamp": "2025-12-22T05:49:03.140359+00:00", "meta": {"OBJECT_NAME": "MICROCARB", "OBJECT_ID": "2025-156A", "EPOCH": "2025-12-21T16:35:06.337248", "MEAN_MOTION": 14.72070482, "ECCENTRICITY": 0.0017551, "INCLINATION": 98.0015, "RA_OF_ASC_NODE": 70.8926, "ARG_OF_PERICENTER": 117.8544, "MEAN_ANOMALY": 242.4444, "EPHEMERIS_TYPE": 0, "CLASSIFICATION_TYPE": "U", "NORAD_CAT_ID": 64899, "ELEMENT_SET_NO": 999, "REV_AT_EPOCH": 2185, "BSTAR": 9.624e-05, "MEAN_MOTION_DOT": 5.57e-06, "MEAN_MOTION_DDOT": 0}, "tle": {"line1": "1 64899U 25156A   25355.69104557  .00000557  00000+0  96240-4 0  9993", "line2": "2 64899  98.0015  70.8926 0017551 117.8544 242.4444 14.72070482 21857"}}, "geometry": {"type": "Point", "coordinates": [64.74040306334618, 39.651204919914]}}, {"type": "Feature", "properties": {"norad_id": 64900, "name": "CO3D 3", "group": "resource", "lat": -72.60760008791627, "lon": 97.11061795769909, "alt_km": 513.3450976788417, "timestamp": "2025-12-22T05:49:03.140370+00:00", "meta": {"OBJECT_NAME": "CO3D 3", "OBJECT_ID": "2025-156B", "EPOCH": "2025-12-21T20:39:54.808992", "MEAN_MOTION": 15.2020039, "ECCENTRICITY": 0.0001371, "INCLINATION": 97.4344, "RA_OF_ASC_NODE": 72.0975, "ARG_OF_PERICENTER": 74.637, "MEAN_ANOMALY": 285.5016, "EPHEMERIS_TYPE": 0, "CLASSIFICATION_TYPE": "U", "NORAD_CAT_ID": 64900, "ELEMENT_SET_NO": 999, "REV_AT_EPOCH": 2259, "BSTAR": 0.00021444, "MEAN_MOTION_DOT": 4.577e-05, "MEAN_MOTION_DDOT": 0}, "tle": {"line1": "1 64900U 25156B   25355.86105103  .00004577  00000+0  21444-3 0  9992", "line2": "2 64900  97.4344  72.0975 0001371  74.6370 285.5016 15.20200390 22598"}}, "geometry": {"type": "Point", "coordinates": [97.11061795769909, -72.60760008791627]}}, {"type": "Feature", "properties": {"norad_id": 64901, "name": "CO3D 4", "group": "resource", "lat": -73.35201540915584, "lon": 98.36486254968453, "alt_km": 512.9839619231179, "timestamp": "2025-12-22T05:49:03.140380+00:00", "meta": {"OBJECT_NAME": "CO3D 4", "OBJECT_ID": "2025-156C", "EPOCH": "2025-12-21T20:40:08.251968", "MEAN_MOTION": 15.20207134, "ECCENTRICITY": 0.0001286, "INCLINATION": 97.4341, "RA_OF_ASC_NODE": 72.0979, "ARG_OF_PERICENTER": 165.6644, "MEAN_ANOMALY": 194.4628, "EPHEMERIS_TYPE": 0, "CLASSIFICATION_TYPE": "U", "NORAD_CAT_ID": 64901, "ELEMENT_SET_NO": 999, "REV_AT_EPOCH": 2259, "BSTAR": 0.00022763, "MEAN_MOTION_DOT": 4.864e-05, "MEAN_MOTION_DDOT": 0}, "tle": {"line1": "1 64901U 25156C   25355.86120662  .00004864  00000+0  22763-3 0  9994", "line2": "2 64901  97.4341  72.0979 0001286 165.6644 194.4628 15.20207134 22590"}}, "geometry": {"type": "Point", "coordinates": [98.36486254968453, -73.35201540915584]}}]}